GSAT0222 (GALILEO 26)   
1 43565U 18060B   23273.54083195 -.00000105  00000+0  00000+0 0  9995
2 43565  57.2914   8.4960 0004050 220.8731 139.1207  1.70475814 32322
GSAT0219 (GALILEO 23)   
1 43566U 18060C   23276.10946754 -.00000110  00000+0  00000+0 0  9996
2 43566  57.2907   8.4289 0003079 258.3568 101.6372  1.70476034 32347
GSAT0220 (GALILEO 24)   
1 43567U 18060D   23269.87746300 -.00000095  00000+0  00000+0 0  9990
2 43567  57.2899   8.5973 0002790 251.5228 108.4649  1.70475635 32221
BEIDOU-3 M13            
1 43622U 18072A   23274.93024223  .00000001  00000+0  00000+0 0  9997
2 43622  55.7923  95.5416 0004010 292.9818  67.0165  1.86231479 34232
BEIDOU-3 M14            
1 43623U 18072B   23276.94349491 -.00000004  00000+0  00000+0 0  9992
2 43623  55.7960  95.4670 0002367 350.4137   9.6164  1.86231545 34260
GPS BIII-1              
1 43873U 18109A   23275.59697211  .00000014  00000+0  00000+0 0  9996
2 43873  55.2012 131.2478 0026219 190.0959   2.3863  2.00569877 35241
METEOR-M2 2             
1 44387U 19038A   23277.44808863  .00000130  00000+0  76486-4 0  9997
2 44387  98.7897 241.1959 0001557  29.1013 331.0251 14.23810910220852
GPS BIII-2              
1 44506U 19056A   23276.49299999 -.00000110  00000+0  00000+0 0  9991
2 44506  55.8248  10.2866 0037838 186.7662 191.8053  2.00566064 30268
BEIDOU-3 M23            
1 44542U 19061A   23276.24825094  .00000013  00000+0  00000+0 0  9992
2 44542  54.4815 216.0821 0008508 346.7189  13.2474  1.86231492 27395
BEIDOU-3 M24            
1 44543U 19061B   23277.06934094  .00000009  00000+0  00000+0 0  9990
2 44543  54.4800 216.0232 0005708 333.0331 129.3627  1.86231840 27401
BEIDOU-3 M21            
1 44793U 19078A   23276.09365777 -.00000101  00000+0  00000+0 0  9997
2 44793  54.7391 334.3124 0004760  11.0633 349.0056  1.86232195 26247
BEIDOU-3 M22            
1 44794U 19078B   23277.29804903 -.00000102  00000+0  00000+0 0  9991
2 44794  54.7121 334.2522 0002851 355.8775   4.1767  1.86232669 26272
ELEKTRO-L 3             
1 44903U 19095A   23277.38098596 -.00000104  00000+0  00000+0 0  9997
2 44903   0.0443 275.0819 0001519 281.5670  29.3411  1.00266739 13794
GPS BIII-3              
1 45854U 20041A   23276.46760186 -.00000037  00000+0  00000+0 0  9990
2 45854  55.9087  67.5736 0037293 186.9532 116.4336  2.00562762 24228
COSMOS 2547             
1 46805U 20075A   23276.62097851  .00000029  00000+0  00000+0 0  9994
2 46805  64.6136 225.5194 0007907 243.6359 116.2708  2.13102808 22862
GPS BIII-4              
1 46826U 20078A   23277.30598841  .00000017  00000+0  00000+0 0  9998
2 46826  54.2982 250.8461 0036631 194.8890 329.4829  2.00562802 21704
GSAT0223 (GALILEO 27)   
1 49809U 21116A   23275.57562093 -.00000109  00000+0  00000+0 0  9996
2 49809  57.2818   8.3386 0003703 200.1627 147.1989  1.70476025 11320
GSAT0224 (GALILEO 28)   
1 49810U 21116B   23274.29079145 -.00000106  00000+0  00000+0 0  9994
2 49810  57.2825   8.3716 0002886 189.0507 202.2691  1.70475992 11336
GOES 18                 
1 51850U 22021A   23277.50081279  .00000088  00000+0  00000+0 0  9993
2 51850   0.0227  16.4302 0000439 201.3684 198.4298  1.00271188  5912
